[{"OBJECT_NAME":"STARLINK-34421","OBJECT_ID":"2025-130X","EPOCH":"2026-02-26T14:23:06.194400","MEAN_MOTION":15.30192148,"ECCENTRICITY":0.0001089,"INCLINATION":53.1579,"RA_OF_ASC_NODE":140.1444,"ARG_OF_PERICENTER":89.4709,"MEAN_ANOMALY":270.6416,"EPHEMERIS_TYPE":0,"CLASSIFICATION_TYPE":"U","NORAD_CAT_ID":64459,"ELEMENT_SET_NO":999,"REV_AT_EPOCH":3900,"BSTAR":0.00099213,"MEAN_MOTION_DOT":0.00029133,"MEAN_MOTION_DDOT":0},{"OBJECT_NAME":"CZ-4B DEB","OBJECT_ID":"1999-057DZ","EPOCH":"2026-03-09T09:52:12.897696","MEAN_MOTION":15.33653758,"ECCENTRICITY":0.00127381,"INCLINATION":98.4932,"RA_OF_ASC_NODE":238.6814,"ARG_OF_PERICENTER":254.7139,"MEAN_ANOMALY":105.2693,"EPHEMERIS_TYPE":0,"CLASSIFICATION_TYPE":"U","NORAD_CAT_ID":26235,"ELEMENT_SET_NO":999,"REV_AT_EPOCH":38912,"BSTAR":0.0023807093,"MEAN_MOTION_DOT":0.00078286,"MEAN_MOTION_DDOT":0}]
